NORAD_CAT_ID,OBJECT_NAME,OBJECT_TYPE,EPOCH,MEAN_MOTION,ECCENTRICITY,INCLINATION,RA_OF_ASC_NODE,ARG_OF_PERICENTER,MEAN_ANOMALY,BSTAR,MEAN_MOTION_DOT,MEAN_MOTION_DDOT,TLE_LINE0,TLE_LINE1,TLE_LINE2,SEMIMAJOR_AXIS,PERIOD,APOGEE,PERIGEE,DECAYED
52991.0,STARLINK-4285,PAYLOAD,2022-09-17 14:00:01,15.08854261,0.0001729,53.2195,41.3592,52.7123,324.4686,-0.0014612,-0.00023477,0.0,0 STARLINK-4285,1 52991U 22076F   22260.58334491 -.00023477  00000-0 -14612-2 0  9993,2 52991  53.2195  41.3592 0001729  52.7123 324.4686 15.08854261 11584,6917.837,95.437,540.898,538.506,0.0
52991.0,STARLINK-4285,PAYLOAD,2022-09-17 22:00:00,15.08856967,0.0001766,53.2192,39.8634,46.1497,342.6339,-0.0012633,-0.00020347,0.0,0 STARLINK-4285,1 52991U 22076F   22260.91667824 -.00020347  00000-0 -12633-2 0  9993,2 52991  53.2192  39.8634 0001766  46.1497 342.6339 15.08856967  1303,6917.829000000002,95.436,540.915,538.472,0.0
52991.0,STARLINK-4285,PAYLOAD,2022-09-18 06:00:00,15.0880559,0.0001571,53.2193,38.3653,51.8644,348.5378,0.0033954999999999,0.00054115,0.0,0 STARLINK-4285,1 52991U 22076F   22261.25001157  .00054115  00000-0  33955-2 0  9990,2 52991  53.2193  38.3653 0001571  51.8644 348.5378 15.08805590 11686,6917.986,95.44,540.937,538.764,0.0
52991.0,STARLINK-4285,PAYLOAD,2022-09-18 14:00:01,15.08859041,0.0001710999999999,53.2194,36.8703,48.4529,3.5874,-0.0022001,-0.00035151,0.0,0 STARLINK-4285,1 52991U 22076F   22261.58335648 -.00035151  00000-0 -22001-2 0  9992,2 52991  53.2194  36.8703 0001711  48.4529   3.5874 15.08859041  1303,6917.821999999999,95.436,540.871,538.504,0.0
52991.0,STARLINK-4285,PAYLOAD,2022-09-18 22:00:00,15.08837442,0.0001733,53.2193,35.3744,41.7597,21.8242,-0.00046391,-7.663e-05,0.0,0 STARLINK-4285,1 52991U 22076F   22261.91667824 -.00007663  00000-0 -46391-3 0  9999,2 52991  53.2193  35.3744 0001733  41.7597  21.8242 15.08837442 11782,6917.888000000001,95.438,540.952,538.554,0.0
52991.0,STARLINK-4285,PAYLOAD,2022-09-19 14:00:01,15.08864186,0.0001709,53.2197,32.3815,44.0206,42.7363,-0.0030177,-0.00048027,0.0,0 STARLINK-4285,1 52991U 22076F   22262.58334491 -.00048027  00000-0 -30177-2 0  9997,2 52991  53.2197  32.3815 0001709  44.0206  42.7363 15.08864186  1306,6917.806,95.436,540.854,538.489,0.0
52991.0,STARLINK-4285,PAYLOAD,2022-09-19 22:00:00,15.08829439,0.0001732,53.2198,30.8853,38.4686,59.8937,0.00035128,5.305e-05,0.0,0 STARLINK-4285,1 52991U 22076F   22262.91667824  .00005305  00000-0  35128-3 0  9995,2 52991  53.2198  30.8853 0001732  38.4686  59.8937 15.08829439  1305,6917.913000000001,95.438,540.976,538.5790000000002,0.0
52991.0,STARLINK-4285,PAYLOAD,2022-09-20 06:00:00,15.08820641,0.0001578,53.2201,29.3874,44.0133,65.9438,0.00282,0.00044854,0.0,0 STARLINK-4285,1 52991U 22076F   22263.25001157  .00044854  00000-0  28200-2 0  9998,2 52991  53.2201  29.3874 0001578  44.0133  65.9438 15.08820641 11990,6917.94,95.439,540.896,538.7130000000002,0.0
52991.0,STARLINK-4285,PAYLOAD,2022-09-20 14:00:01,15.08849202,0.0001794,53.2202,27.8925,43.5545,77.9943,-0.0027421999999999,-0.00043677,0.0,0 STARLINK-4285,1 52991U 22076F   22263.58334491 -.00043677  00000-0 -27422-2 0  9993,2 52991  53.2202  27.8925 0001794  43.5545  77.9943 15.08849202  1304,6917.852,95.437,540.9580000000002,538.476,0.0
52991.0,STARLINK-4285,PAYLOAD,2022-09-20 22:00:01,15.08834377,0.0001858,53.2202,26.3963,41.1962,91.9961,0.00012827,1.754e-05,0.0,0 STARLINK-4285,1 52991U 22076F   22263.91668981  .00001754  00000-0  12827-3 0  9996,2 52991  53.2202  26.3963 0001858  41.1962  91.9961 15.08834377  1301,6917.898,95.438,541.048,538.477,0.0
52991.0,STARLINK-4285,PAYLOAD,2022-09-21 14:00:01,15.08825401,0.0001943999999999,53.2206,23.4038,46.9439,109.3418,-0.00052284,-8.596e-05,0.0,0 STARLINK-4285,1 52991U 22076F   22264.58334491 -.00008596  00000-0 -52284-3 0  9990,2 52991  53.2206  23.4038 0001944  46.9439 109.3418 15.08825401 12192,6917.925,95.438,541.135,538.445,0.0
52991.0,STARLINK-4285,PAYLOAD,2022-09-21 22:00:00,15.08838931,0.0001962,53.2205,21.9075,44.6888,123.1662,-0.00038765,-6.452e-05,0.0,0 STARLINK-4285,1 52991U 22076F   22264.91667824 -.00006452  00000-0 -38765-3 0  9993,2 52991  53.2205  21.9075 0001962  44.6888 123.1662 15.08838931  1306,6917.884,95.438,541.106,538.391,0.0
52991.0,STARLINK-4285,PAYLOAD,2022-09-22 06:00:00,15.08820171,0.0001781999999999,53.2208,20.4099,50.7792,128.6668,0.0027656,0.00043978,0.0,0 STARLINK-4285,1 52991U 22076F   22265.25001157  .00043978  00000-0  27656-2 0  9990,2 52991  53.2208  20.4099 0001782  50.7792 128.6668 15.08820171 12294,6917.941,95.439,541.039,538.573,0.0
52991.0,STARLINK-4285,PAYLOAD,2022-09-22 14:00:01,15.08855094,0.0001921,53.2208,18.9152,46.5421,144.4927,-0.0016638999999999,-0.00026683,0.0,0 STARLINK-4285,1 52991U 22076F   22265.58334491 -.00026683  00000-0 -16639-2 0  9991,2 52991  53.2208  18.9152 0001921  46.5421 144.4927 15.08855094  1309,6917.834,95.437,541.028,538.37,0.0
52991.0,STARLINK-4285,PAYLOAD,2022-09-22 22:00:00,15.08848829,0.0001861,53.2206,17.4187,43.6013,159.0347,-0.002139,-0.00034178,0.0,0 STARLINK-4285,1 52991U 22076F   22265.91667824 -.00034178  00000-0 -21390-2 0  9995,2 52991  53.2206  17.4187 0001861  43.6013 159.0347 15.08848829 12394,6917.853,95.437,541.006,538.431,0.0
52991.0,STARLINK-4285,PAYLOAD,2022-09-23 14:00:01,15.08835915,0.0001988,53.2174,14.4195,47.769,178.0673,8.6771e-05,1.093e-05,0.0,0 STARLINK-4285,1 52991U 22076F   22266.58334491  .00001093  00000-0  86771-4 0  9994,2 52991  53.2174  14.4195 0001988  47.7690 178.0673 15.08835915 12496,6917.893,95.438,541.133,538.383,0.0
52991.0,STARLINK-4285,PAYLOAD,2022-09-23 22:00:00,15.08878265,0.0001805,53.2204,12.9301,42.4479,194.9645,-0.0040755,-0.00064636,0.0,0 STARLINK-4285,1 52991U 22076F   22266.91667824 -.00064636  00000-0 -40755-2 0  9994,2 52991  53.2204  12.9301 0001805  42.4479 194.9645 15.08878265  1306,6917.763000000001,95.435,540.877,538.38,0.0
52991.0,STARLINK-4285,PAYLOAD,2022-09-24 14:00:01,15.08856948,0.0001815,53.2204,9.9382,41.4878,219.2087,-0.00083092,-0.00013494,0.0,0 STARLINK-4285,1 52991U 22076F   22267.58335648 -.00013494  00000-0 -83092-3 0  9992,2 52991  53.2204   9.9382 0001815  41.4878 219.2087 15.08856948  1309,6917.829000000002,95.436,540.9490000000002,538.438,0.0
52991.0,STARLINK-4285,PAYLOAD,2022-09-24 22:00:00,15.08861099,0.0001756,53.2201,8.4414,38.8142,233.4313,-0.001921,-0.00030749,0.0,0 STARLINK-4285,1 52991U 22076F   22267.91667824 -.00030749  00000-0 -19210-2 0  9995,2 52991  53.2201   8.4414 0001756  38.8142 233.4313 15.08861099  1307,6917.816,95.436,540.896,538.466,0.0
52991.0,STARLINK-4285,PAYLOAD,2022-09-25 14:00:01,15.08840455,0.0001908,53.22,5.4495,41.08600000000001,254.3705,-0.00053714,-8.827e-05,0.0,0 STARLINK-4285,1 52991U 22076F   22268.58334491 -.00008827  00000-0 -53714-3 0  9990,2 52991  53.2200   5.4495 0001908  41.0860 254.3705 15.08840455  1304,6917.879,95.438,541.064,538.424,0.0
52991.0,STARLINK-4285,PAYLOAD,2022-09-25 22:00:01,15.08838679,0.0001811999999999,53.2201,3.9526,38.0457,269.0552,-0.0021924,-0.0003501,0.0,0 STARLINK-4285,1 52991U 22076F   22268.91668981 -.00035010  00000-0 -21924-2 0  9992,2 52991  53.2201   3.9526 0001812  38.0457 269.0552 15.08838679 12844,6917.884,95.438,541.003,538.496,0.0
52991.0,STARLINK-4285,PAYLOAD,2022-09-26 10:00:00,15.08843365,0.00018,53.2197,1.7086,41.9359,102.4556,-0.0011786,-0.00018998,0.0,0 STARLINK-4285,1 52991U 22076F   22269.41667824 -.00018998  00000-0 -11786-2 0  9994,2 52991  53.2197   1.7086 0001800  41.9359 102.4556 15.08843365 12927,6917.87,95.437,540.98,538.49,0.0
52991.0,STARLINK-4285,PAYLOAD,2022-09-26 14:00:01,15.08826739,0.0001952,53.2194,0.9613,39.5024,290.688,0.0010103,0.00015822,0.0,0 STARLINK-4285,1 52991U 22076F   22269.58334491  .00015822  00000-0  10103-2 0  9996,2 52991  53.2194   0.9613 0001952  39.5024 290.6880 15.08826739  1307,6917.920999999999,95.438,541.136,538.436,0.0
52991.0,STARLINK-4285,PAYLOAD,2022-09-26 22:00:00,15.08899735,0.0001945,53.218,359.4604,38.2513,303.5236,-0.0086999,-0.00136364,0.0,0 STARLINK-4285,1 52991U 22076F   22269.91667824 -.00136364  00000-0 -86999-2 0  9995,2 52991  53.2180 359.4604 0001945  38.2513 303.5236 15.08899735 12997,6917.698,95.434,540.908,538.217,0.0
52991.0,STARLINK-4285,PAYLOAD,2022-09-27 00:00:00,15.08847714,0.0001862,53.2186,359.0897,42.0518,32.6226,-0.0027167,-0.00043275,0.0,0 STARLINK-4285,1 52991U 22076F   22270.00001157 -.00043275  00000-0 -27167-2 0  9998,2 52991  53.2186 359.0897 0001862  42.0518  32.6226 15.08847714  1301,6917.857,95.437,541.01,538.434,0.0
52991.0,STARLINK-4285,PAYLOAD,2022-09-27 06:00:00,15.08815667,0.0001892,53.2188,357.9671,46.7486,306.618,0.002109,0.00033414,0.0,0 STARLINK-4285,1 52991U 22076F   22270.25001157  .00033414  00000-0  21090-2 0  9996,2 52991  53.2188 357.9671 0001892  46.7486 306.6180 15.08815667 13047,6917.955,95.439,541.129,538.511,0.0
52991.0,STARLINK-4285,PAYLOAD,2022-09-27 14:00:01,15.08824386,0.0002133,53.2188,356.4727,42.2304,322.7184,0.0013139,0.00020676,0.0,0 STARLINK-4285,1 52991U 22076F   22270.58334491  .00020676  00000-0  13139-2 0  9993,2 52991  53.2188 356.4727 0002133  42.2304 322.7184 15.08824386  1309,6917.928000000001,95.439,541.269,538.318,0.0
52991.0,STARLINK-4285,PAYLOAD,2022-09-27 22:00:01,15.08867235,0.000205,53.2187,354.9753,41.8982,334.7078,-0.00092094,-0.00014926,0.0,0 STARLINK-4285,1 52991U 22076F   22270.91668981 -.00014926  00000-0 -92094-3 0  9995,2 52991  53.2187 354.9753 0002050  41.8982 334.7078 15.08867235  1300,6917.797,95.436,541.08,538.244,0.0
52991.0,STARLINK-4285,PAYLOAD,2022-09-28 06:00:00,15.08880183,0.0001909999999999,53.219,353.4783,45.4146,342.7487,-0.00094079,-0.00015246,0.0,0 STARLINK-4285,1 52991U 22076F   22271.25001157 -.00015246  00000-0 -94079-3 0  9990,2 52991  53.2190 353.4783 0001910  45.4146 342.7487 15.08880183 13197,6917.7580000000025,95.435,540.944,538.3009999999998,0.0
